EXPRESS-AM8             
1 40895U 15048A   26063.15418767 -.00000124  00000+0  00000+0 0  9996
2 40895   0.0307 258.4062 0000300 359.1654 305.8313  1.00270424 38296
BLOCK DM-SL R/B         
1 40896U 15048B   26062.25532500 -.00000232  00000+0  00000+0 0  9999
2 40896   8.8330  61.6784 0097926 146.0008 214.7787  0.98658926 37734
COSMOS 1700 DEB         
1 40924U 85102G   26063.53030223 -.00000014  00000+0  00000+0 0  9994
2 40924   9.8660 319.4316 0021546 119.4232 340.0912  1.00215869 66381
SKY MUSTER 1 (NBN1A)    
1 40940U 15054A   26063.50303637  .00000000  00000+0  00000+0 0  9994
2 40940   0.0196 162.2230 0001838 181.1442 140.2155  1.00267939 38211
ARSAT 2                 
1 40941U 15054B   26063.18030811  .00000000  00000+0  00000+0 0  9990
2 40941   0.0212 120.7560 0001996 219.9012 165.1963  1.00268537 38256
MORELOS 3               
1 40946U 15056A   26063.48864072 -.00000052  00000+0  00000+0 0  9992
2 40946   3.1087  12.1004 0002909   0.3513 212.5788  1.00268498 38231
APSTAR-9                
1 40982U 15059A   26063.79828001 -.00000276  00000+0  00000+0 0  9999
2 40982   0.0432 345.9331 0001909 273.4275 332.5661  1.00271185 38070
TURKSAT 4B              
1 40984U 15060A   26063.29905912  .00000000  00000+0  00000+0 0  9999
2 40984   0.0225 157.2426 0002275 188.8451 333.6127  1.00269736 38048
FENGYUN 2E DEB          
1 40987U 08066D   26058.62600715  .00000055  00000+0  00000+0 0  9994
2 40987   9.9514  45.6569 0178156  15.6248 344.9936  1.00280833 61366
ZHONGXING-2C            
1 41021U 15063A   26063.83336402 -.00000334  00000+0  00000+0 0  9998
2 41021   0.0187 174.0825 0007208  51.9567 339.9891  1.00273487 37939
GSAT-15                 
1 41028U 15065A   26063.83378066 -.00000267  00000+0  00000+0 0  9994
2 41028   0.0886 269.9580 0000953  96.3755 189.8745  1.00270872 37751
BADR-7 (ARABSAT-6B)     
1 41029U 15065B   26063.84747472  .00000135  00000+0  00000+0 0  9990
2 41029   0.0244 195.2794 0003316  70.8367 227.5323  1.00271882 37721
COSMOS 2510             
1 41032U 15066A   26061.45834689  .00001269  00000+0  00000+0 0  9996
2 41032  63.4496   0.9503 7211194 274.5576  13.9547  2.00932732 75326
FREGAT R/B              
1 41033U 15066B   26061.00377777  .00000866  00000+0  19417-3 0  9996
2 41033  62.8972 328.0708 7445610 266.6191  14.5744  2.01879994 75751
LAOSAT 1                
1 41034U 15067A   26063.73100142 -.00000353  00000+0  00000+0 0  9996
2 41034   0.0152 327.3042 0001917 341.2763 245.5560  1.00273191 37817
TELSTAR 12V             
1 41036U 15068A   26063.38794803 -.00000131  00000+0  00000+0 0  9997
2 41036   0.0203 234.8927 0002409 112.5826 299.3135  1.00272414 37571
H-2A R/B                
1 41037U 15068B   26063.04825699 -.00000170  00000+0  00000+0 0  9992
2 41037  19.3447  96.3414 6445303 243.6476  38.2582  2.12566401 79819
ELEKTRO-L 2             
1 41105U 15074A   26062.86880331 -.00000128  00000+0  00000+0 0  9991
2 41105   6.4296  71.8188 0003467 237.1165 150.9510  1.00270829 37457
FREGAT R/B              
1 41106U 15074B   26063.55696687 -.00000275  00000+0  00000+0 0  9991
2 41106   7.8796  63.0527 0198553 355.6959   4.2730  1.02895544 38439
CZ-3B DEB               
1 41119U 11077AJ  26052.16250494 -.00000049  00000+0  00000+0 0  9990
2 41119  22.6175  20.1881 7281988 216.1148  60.4705  1.69773477 69038
COSMOS 2513             
1 41121U 15075A   26063.65455256 -.00000149  00000+0  00000+0 0  9995
2 41121   0.0444 104.8695 0002086 241.3646 132.0438  1.00275474 37504
BREEZE-M R/B            
1 41122U 15075B   26063.43222948 -.00000217  00000+0  00000+0 0  9998
2 41122   8.2394  59.9546 0336230 159.9346 201.5801  1.04640907 39101
EXPRESS-AMU1            
1 41191U 15082A   26063.36572510  .00000144  00000+0  00000+0 0  9995
2 41191   0.0207 134.3822 0003213 193.4399   2.0190  1.00270888 37216
GAOFEN-4                
1 41194U 15083A   26063.82822594 -.00000344  00000+0  00000+0 0  9993
2 41194   0.3808  83.8538 0003656  80.2575  42.2890  1.00269521 37485
BELINTERSAT-1           
1 41238U 16001A   26063.29905912  .00000095  00000+0  00000+0 0  9992
2 41238   0.0516 282.6224 0001467  46.7380 351.8351  1.00269977 37180
IRNSS-1E                
1 41241U 16003A   26062.89409245 -.00000293  00000+0  00000+0 0  9992
2 41241  33.0059  61.2659 0017752 189.2049 344.8575  1.00274986 37023
INTELSAT 29E (IS-29E)   
1 41308U 16004A   26063.13078757  .00000019  00000+0  00000+0 0  9990
2 41308   6.2370  71.5845 0001096 234.7814 130.1788  1.00627646 37225
EUTELSAT 9B             
1 41310U 16005A   26063.37683795  .00000050  00000+0  00000+0 0  9999
2 41310   0.0258  60.9038 0004288 258.7516 347.1290  1.00274710 37062
SES-9                   
1 41380U 16013A   26063.33003138 -.00000357  00000+0  00000+0 0  9999
2 41380   0.0427 307.7822 0001514  86.5529 354.8377  1.00271983 36384
FALCON 9 R/B            
1 41381U 16013B   26063.05634492  .00000007  00000+0  14486-2 0  9999
2 41381  27.5058 283.8293 7428475 257.4490  17.8239  2.05271360 73151
EUTELSAT 65 WEST A      
1 41382U 16014A   26063.15044815 -.00000289  00000+0  00000+0 0  9993
2 41382   0.0706  41.1938 0002240 297.2475 172.4239  1.00272377 36481
IRNSS-1F                
1 41384U 16015A   26063.74256449  .00000149  00000+0  00000+0 0  9993
2 41384   5.0851  99.2627 0019170 188.0583 174.8954  1.00271425 36624
BEIDOU-2 IGSO-6         
1 41434U 16021A   26063.86672000 -.00000150  00000+0  00000+0 0  9997
2 41434  60.0872  39.0732 0059807 233.4204 297.8613  1.00278464 36436
IRNSS-1G                
1 41469U 16027A   26063.62344865 -.00000344  00000+0  00000+0 0  9995
2 41469   4.9357 100.0077 0005294 314.0535 102.2828  1.00268597 36134
JCSAT-2B                
1 41471U 16028A   26062.90226302 -.00000179  00000+0  00000+0 0  9990
2 41471   0.0087 120.7498 0001124 223.0582 296.6414  1.00271223 36071
BREEZE-M DEB            
1 41544U 15075E   26062.02124467 -.00000216  00000+0  00000+0 0  9996
2 41544   8.1581  60.8031 0319550 172.1958 188.4772  1.05680871 39114
BREEZE-M DEB            
1 41547U 15075H   26059.20791900 -.00000066  00000+0  00000+0 0  9990
2 41547   8.3949  63.1852 0265824 136.5180 225.7521  1.03190161 38155
BREEZE-M DEB            
1 41548U 15075J   26060.04037790 -.00000264  00000+0  00000+0 0  9995
2 41548   8.4466  56.9669 0368682 133.2880 230.0034  1.02195101 38161
THAICOM 8               
1 41552U 16031A   26063.75322707 -.00000132  00000+0  00000+0 0  9993
2 41552   0.0695  47.8997 0004028 304.3185 159.9763  1.00272509 35678
INTELSAT 31 (IS-31)     
1 41581U 16035A   26063.62762602 -.00000161  00000+0  00000+0 0  9999
2 41581   0.0381 249.4491 0001729 348.0097  55.8020  1.00270690 35638
BREEZE-M R/B            
1 41582U 16035B   26057.01423186 -.00000021  00000+0  00000+0 0  9992
2 41582  31.8260 305.9659 7906712 131.1030 329.7116  1.12664552 39980
DELTA 4 R/B             
1 41585U 16036B   26062.98475988 -.00000131  00000+0  00000+0 0  9997
2 41585   5.5574 357.8671 0229280 253.1176 104.4423  1.04079529 24636
BEIDOU-2 G7             
1 41586U 16037A   26063.84770705 -.00000362  00000+0  00000+0 0  9996
2 41586   1.4627  68.2080 0007621 341.9955 168.0550  1.00267262  5840
ABS-2A (MONGOLSAT-1)    
1 41588U 16038A   26063.63547584 -.00000094  00000+0  00000+0 0  9995
2 41588   0.0115 141.9968 0001964 152.2568 171.6066  1.00270888 35663
EUTELSAT 117 WEST B     
1 41589U 16038B   26063.36225455 -.00000023  00000+0  00000+0 0  9998
2 41589   0.0384 342.0206 0000210 243.2130 310.2920  1.00271881 35619
FALCON 9 R/B            
1 41590U 16038C   26062.86048866 -.00000162  00000+0 -10323-3 0  9991
2 41590  23.7900 344.3484 7960710 269.9991   9.8168  1.45721730 44535
BRISAT                  
1 41591U 16039A   26063.42891916  .00000000  00000+0  00000+0 0  9994
2 41591   0.0208 150.6767 0002185 195.3165 121.0961  1.00268538 35562
ECHOSTAR 18             
1 41592U 16039B   26063.15044815 -.00000294  00000+0  00000+0 0  9999
2 41592   0.0179 126.5261 0001633 216.6720 171.4854  1.00271454 35574
MUOS-5                  
1 41622U 16041A   26063.35669706 -.00000169  00000+0  00000+0 0  9991
2 41622   2.4313 299.8238 0195184 262.7398 342.8746  1.00271777 36034
TIANTONG-1 1            
1 41725U 16048A   26063.88551872 -.00000325  00000+0  00000+0 0  9998
2 41725   3.6513  42.4390 0005693 354.9964 185.3929  1.00272114 35221
JCSAT-16                
1 41729U 16050A   26063.58239373 -.00000263  00000+0  00000+0 0  9992
2 41729   0.0008 178.3902 0001083 175.0498 162.4879  1.00268161 35021
USA 270                 
1 41744U 16052A   26051.70824468 -.00000036  00000+0  00000+0 0  9995
2 41744   3.8986  78.6910 0003302 288.5278 204.8551  1.00327485 26963
USA 271                 
1 41745U 16052B   26051.81367943 -.00000346  00000+0  00000+0 0  9992
2 41745   3.8712  78.7558 0001639 331.9763 161.1961  1.00119522 26751
INTELSAT 36 (IS-36)     
1 41747U 16053A   26063.63360060 -.00000035  00000+0  00000+0 0  9996
2 41747   0.0191  91.4653 0001229 233.1456 134.3463  1.00270662 34917
INTELSAT 33E (IS-33E)   
1 41748U 16053B   26063.64110312 -.00000192  00000+0  00000+0 0  9995
2 41748   1.3045  85.7939 0024444 189.8548 204.8612  1.00165247 35200
INSAT-3DR               
1 41752U 16054A   26063.62512219 -.00000088  00000+0  00000+0 0  9995
2 41752   0.0478  96.4704 0013224 185.3950 179.5257  1.00272451 34772
GSAT-18                 
1 41793U 16060A   26063.49898241  .00000000  00000+0  00000+0 0  9997
2 41793   0.0253 159.5679 0003359 240.4424  15.8660  1.00269515 34471
SKY MUSTER 2 (NBN1B)    
1 41794U 16060B   26063.77976441  .00000000  00000+0  00000+0 0  9998
2 41794   0.0207 165.1574 0001640 188.8954 233.9948  1.00268073 34472
HIMAWARI-9              
1 41836U 16064A   26063.82649949 -.00000285  00000+0  00000+0 0  9991
2 41836   0.0141 177.2002 0001187 193.3405 230.3426  1.00272204 34163
